STARLINK-1434           
1 45712U 20035BH  26068.24137979  .00054112  00000+0  20295-2 0  9995
2 45712  53.0547  22.1128 0005343  88.0400 272.1210 15.26724568319325
STARLINK-34060          
1 63815U 25092M   26068.33547328  .00020446  00000+0  75064-3 0  9998
2 63815  43.0030 174.2772 0000975 270.5155  89.5585 15.27572284 48501
